[{"OBJECT_NAME":"SJ-11-02","OBJECT_ID":"2011-039A","EPOCH":"2026-03-09T16:40:57.382176","MEAN_MOTION":14.64358784,"ECCENTRICITY":0.00098038,"INCLINATION":98.2752,"RA_OF_ASC_NODE":318.2771,"ARG_OF_PERICENTER":209.2906,"MEAN_ANOMALY":212.5003,"EPHEMERIS_TYPE":0,"CLASSIFICATION_TYPE":"U","NORAD_CAT_ID":37765,"ELEMENT_SET_NO":999,"REV_AT_EPOCH":77939,"BSTAR":0.00016869851,"MEAN_MOTION_DOT":8.42e-6,"MEAN_MOTION_DDOT":0},{"OBJECT_NAME":"NOAA 16 DEB","OBJECT_ID":"2000-055MF","EPOCH":"2026-03-09T22:55:27.712704","MEAN_MOTION":14.62205998,"ECCENTRICITY":0.00103216,"INCLINATION":98.9212,"RA_OF_ASC_NODE":246.662,"ARG_OF_PERICENTER":30.5711,"MEAN_ANOMALY":329.6088,"EPHEMERIS_TYPE":0,"CLASSIFICATION_TYPE":"U","NORAD_CAT_ID":41507,"ELEMENT_SET_NO":999,"REV_AT_EPOCH":4835,"BSTAR":0.0035258005,"MEAN_MOTION_DOT":0.00017761,"MEAN_MOTION_DDOT":0}]
